{
  "norad_id": 40063,
  "name": "GONETS-M 10",
  "history": [
    {
      "epoch": "2026-03-28T21:34:32.539008Z",
      "apogee_km": 1511.097980758127,
      "perigee_km": 1477.2077728385111,
      "latitude_deg": 6.115533486507652e-05,
      "longitude_deg": -152.40318986233595,
      "height_km": 1483.8412148808966,
      "semi_major_axis_km": 7872.289876798319,
      "eccentricity": 0.0021525,
      "inclination_deg": 82.5167,
      "raan_deg": 357.5452,
      "arg_perigee_deg": 320.1816,
      "mean_anomaly_deg": 39.7684,
      "mean_motion_rev_day": 12.42942808
    },
    {
      "epoch": "2026-03-29T05:18:11.020032Z",
      "apogee_km": 1511.083544053481,
      "perigee_km": 1477.2216775216393,
      "latitude_deg": -2.2301878035881582e-06,
      "longitude_deg": 91.16931309754149,
      "height_km": 1483.9893501948727,
      "semi_major_axis_km": 7872.2896107875595,
      "eccentricity": 0.0021507,
      "inclination_deg": 82.5168,
      "raan_deg": 357.3454,
      "arg_perigee_deg": 319.4597,
      "mean_anomaly_deg": 40.488,
      "mean_motion_rev_day": 12.42942871
    },
    {
      "epoch": "2026-03-30T04:29:06.516672Z",
      "apogee_km": 1511.0468872185784,
      "perigee_km": 1477.2574476541076,
      "latitude_deg": -5.848682063495008e-06,
      "longitude_deg": 101.88642294200771,
      "height_km": 1484.4402946271189,
      "semi_major_axis_km": 7872.289167436343,
      "eccentricity": 0.0021461,
      "inclination_deg": 82.5169,
      "raan_deg": 356.7458,
      "arg_perigee_deg": 317.2936,
      "mean_anomaly_deg": 42.6475,
      "mean_motion_rev_day": 12.42942976
    }
  ]
}